start=new Date('2021-11-01T00:00:00.000Z').valueOf();
sats=[{"APOAPSIS":"548.393","EPHEMERIS_TYPE":"0","COUNTRY_CODE":"US","CLASSIFICATION_TYPE":"U","OBJECT_TYPE":"PAYLOAD","SITE":"AFETR","MEAN_ELEMENT_THEORY":"SGP4","REV_AT_EPOCH":"6005","NORAD_CAT_ID":"46584","GP_ID":"188571235","MEAN_MOTION_DDOT":"0.0000000000000","EPOCH":"2021-10-31T03:21:47.264832","MEAN_ANOMALY":"281.5886","MEAN_MOTION_DOT":"0.00000385","RA_OF_ASC_NODE":"96.8665","ECCENTRICITY":"0.00016810","ARG_OF_PERICENTER":"78.5291","TLE_LINE2":"2 46584  53.0533  96.8665 0001681  78.5291 281.5886 15.06395125 60052","REF_FRAME":"TEME","TLE_LINE1":"1 46584U 20070BE  21304.14013038  .00000385  00000-0  44760-4 0  9997","LAUNCH_DATE":"2020-10-06","TIME_SYSTEM":"UTC","OBJECT_NAME":"STARLINK-1732","CENTER_NAME":"EARTH","ELEMENT_SET_NO":"999","FILE":"3194431","MEAN_MOTION":"15.06395125","SEMIMAJOR_AXIS":"6925.363","RCS_SIZE":"LARGE","INCLINATION":"53.0533","PERIOD":"95.592","OBJECT_ID":"2020-070BE","PERIAPSIS":"546.064","DECAY_DATE":null,"BSTAR":"0.00004476000000"},{"SITE":"AFETR","MEAN_ELEMENT_THEORY":"SGP4","OBJECT_TYPE":"PAYLOAD","REV_AT_EPOCH":"6014","EPHEMERIS_TYPE":"0","COUNTRY_CODE":"US","APOAPSIS":"548.179","CLASSIFICATION_TYPE":"U","ECCENTRICITY":"0.00014110","RA_OF_ASC_NODE":"94.1171","TLE_LINE2":"2 46585  53.0544  94.1171 0001411  91.2644 268.8507 15.06403943 60149","ARG_OF_PERICENTER":"91.2644","MEAN_MOTION_DDOT":"0.0000000000000","EPOCH":"2021-10-31T18:08:10.342464","GP_ID":"188606882","NORAD_CAT_ID":"46585","MEAN_MOTION_DOT":"0.00000305","MEAN_ANOMALY":"268.8507","ELEMENT_SET_NO":"999","CENTER_NAME":"EARTH","OBJECT_NAME":"STARLINK-1736","TIME_SYSTEM":"UTC","MEAN_MOTION":"15.06403943","FILE":"3194950","TLE_LINE1":"1 46585U 20070BF  21304.75567526  .00000305  00000-0  39363-4 0  9996","REF_FRAME":"TEME","LAUNCH_DATE":"2020-10-06","DECAY_DATE":null,"PERIAPSIS":"546.224","BSTAR":"0.00003936300000","INCLINATION":"53.0544","RCS_SIZE":"LARGE","SEMIMAJOR_AXIS":"6925.336","OBJECT_ID":"2020-070BF","PERIOD":"95.592"},{"BSTAR":"0.00009848900000","DECAY_DATE":null,"PERIAPSIS":"545.980","OBJECT_ID":"2020-070BG","PERIOD":"95.592","SEMIMAJOR_AXIS":"6925.326","INCLINATION":"53.0541","RCS_SIZE":"LARGE","FILE":"3194950","MEAN_MOTION":"15.06407387","OBJECT_NAME":"STARLINK-1737","TIME_SYSTEM":"UTC","CENTER_NAME":"EARTH","ELEMENT_SET_NO":"999","LAUNCH_DATE":"2020-10-06","REF_FRAME":"TEME","TLE_LINE1":"1 46586U 20070BG  21304.67826840  .00001186  00000-0  98489-4 0  9997","TLE_LINE2":"2 46586  53.0541  94.4599 0001749  89.5009 270.6181 15.06407387 60137","ARG_OF_PERICENTER":"89.5009","RA_OF_ASC_NODE":"94.4599","ECCENTRICITY":"0.00017490","MEAN_MOTION_DOT":"0.00001186","MEAN_ANOMALY":"270.6181","NORAD_CAT_ID":"46586","MEAN_MOTION_DDOT":"0.0000000000000","EPOCH":"2021-10-31T16:16:42.389760","GP_ID":"188607126","REV_AT_EPOCH":"6013","OBJECT_TYPE":"PAYLOAD","SITE":"AFETR","MEAN_ELEMENT_THEORY":"SGP4","CLASSIFICATION_TYPE":"U","APOAPSIS":"548.402","EPHEMERIS_TYPE":"0","COUNTRY_CODE":"US"},{"MEAN_MOTION_DOT":"0.00000589","MEAN_ANOMALY":"272.8665","NORAD_CAT_ID":"46588","MEAN_MOTION_DDOT":"0.0000000000000","EPOCH":"2021-10-31T19:01:15.650400","GP_ID":"188606381","TLE_LINE2":"2 46588  53.0536  93.9361 0001519  87.2498 272.8665 15.06397348 60154","ARG_OF_PERICENTER":"87.2498","RA_OF_ASC_NODE":"93.9361","ECCENTRICITY":"0.00015190","CLASSIFICATION_TYPE":"U","APOAPSIS":"548.274","COUNTRY_CODE":"US","EPHEMERIS_TYPE":"0","REV_AT_EPOCH":"6015","OBJECT_TYPE":"PAYLOAD","MEAN_ELEMENT_THEORY":"SGP4","SITE":"AFETR","OBJECT_ID":"2020-070BJ","PERIOD":"95.592","SEMIMAJOR_AXIS":"6925.357","INCLINATION":"53.0536","RCS_SIZE":"LARGE","BSTAR":"0.00005844700000","DECAY_DATE":null,"PERIAPSIS":"546.170","LAUNCH_DATE":"2020-10-06","REF_FRAME":"TEME","TLE_LINE1":"1 46588U 20070BJ  21304.79254225  .00000589  00000-0  58447-4 0  9990","FILE":"3194950","MEAN_MOTION":"15.06397348","OBJECT_NAME":"STARLINK-1746","TIME_SYSTEM":"UTC","CENTER_NAME":"EARTH","ELEMENT_SET_NO":"999"},{"INCLINATION":"53.0549","RCS_SIZE":"LARGE","SEMIMAJOR_AXIS":"6925.357","OBJECT_ID":"2020-070BK","PERIOD":"95.592","DECAY_DATE":null,"PERIAPSIS":"546.113","BSTAR":"0.00005256600000","TLE_LINE1":"1 46589U 20070BK  21304.85151623  .00000501  00000-0  52566-4 0  9996","REF_FRAME":"TEME","LAUNCH_DATE":"2020-10-06","ELEMENT_SET_NO":"999","CENTER_NAME":"EARTH","OBJECT_NAME":"STARLINK-1749","TIME_SYSTEM":"UTC","MEAN_MOTION":"15.06397085","FILE":"3194950","MEAN_MOTION_DDOT":"0.0000000000000","EPOCH":"2021-10-31T20:26:11.002272","GP_ID":"188606631","NORAD_CAT_ID":"46589","MEAN_MOTION_DOT":"0.00000501","MEAN_ANOMALY":"279.9518","ECCENTRICITY":"0.00016020","RA_OF_ASC_NODE":"93.6751","TLE_LINE2":"2 46589  53.0549  93.6751 0001602  80.1652 279.9518 15.06397085 60159","ARG_OF_PERICENTER":"80.1652","EPHEMERIS_TYPE":"0","COUNTRY_CODE":"US","APOAPSIS":"548.332","CLASSIFICATION_TYPE":"U","SITE":"AFETR","MEAN_ELEMENT_THEORY":"SGP4","OBJECT_TYPE":"PAYLOAD","REV_AT_EPOCH":"6015"},{"REV_AT_EPOCH":"6121","MEAN_ELEMENT_THEORY":"SGP4","SITE":"AFETR","OBJECT_TYPE":"PAYLOAD","CLASSIFICATION_TYPE":"U","EPHEMERIS_TYPE":"0","COUNTRY_CODE":"US","APOAPSIS":"471.909","TLE_LINE2":"2 46590  53.0505  17.2414 0001025  99.3996 260.7120 15.31544009 61216","ARG_OF_PERICENTER":"99.3996","ECCENTRICITY":"0.00010250","RA_OF_ASC_NODE":"17.2414","MEAN_MOTION_DOT":"0.00288046","MEAN_ANOMALY":"260.7120","MEAN_MOTION_DDOT":"0.0000000000000","EPOCH":"2021-10-31T16:22:48.984096","GP_ID":"188607383","NORAD_CAT_ID":"46590","MEAN_MOTION":"15.31544009","FILE":"3194950","ELEMENT_SET_NO":"999","CENTER_NAME":"EARTH","OBJECT_NAME":"STARLINK-1754","TIME_SYSTEM":"UTC","LAUNCH_DATE":"2020-10-06","TLE_LINE1":"1 46590U 20070BL  21304.68251139  .00288046  00000-0  89837-2 0  9993","REF_FRAME":"TEME","BSTAR":"0.00898370000000","DECAY_DATE":null,"PERIAPSIS":"470.505","OBJECT_ID":"2020-070BL","PERIOD":"94.023","INCLINATION":"53.0505","RCS_SIZE":"LARGE","SEMIMAJOR_AXIS":"6849.342"},{"BSTAR":"0.00002835600000","DECAY_DATE":null,"PERIAPSIS":"546.239","OBJECT_ID":"2020-070BM","PERIOD":"95.592","INCLINATION":"53.0560","RCS_SIZE":"LARGE","SEMIMAJOR_AXIS":"6925.342","MEAN_MOTION":"15.06402156","FILE":"3194950","ELEMENT_SET_NO":"999","CENTER_NAME":"EARTH","OBJECT_NAME":"STARLINK-1755","TIME_SYSTEM":"UTC","LAUNCH_DATE":"2020-10-06","TLE_LINE1":"1 46591U 20070BM  21304.77410382  .00000141  00000-0  28356-4 0  9990","REF_FRAME":"TEME","TLE_LINE2":"2 46591  53.0560  94.0388 0001398  82.8370 277.2778 15.06402156 59203","ARG_OF_PERICENTER":"82.8370","ECCENTRICITY":"0.00013980","RA_OF_ASC_NODE":"94.0388","MEAN_MOTION_DOT":"0.00000141","MEAN_ANOMALY":"277.2778","MEAN_MOTION_DDOT":"0.0000000000000","EPOCH":"2021-10-31T18:34:42.570048","GP_ID":"188607627","NORAD_CAT_ID":"46591","REV_AT_EPOCH":"5920","MEAN_ELEMENT_THEORY":"SGP4","SITE":"AFETR","OBJECT_TYPE":"PAYLOAD","CLASSIFICATION_TYPE":"U","COUNTRY_CODE":"US","EPHEMERIS_TYPE":"0","APOAPSIS":"548.175"},{"REV_AT_EPOCH":"5743","SITE":"AFETR","MEAN_ELEMENT_THEORY":"SGP4","OBJECT_TYPE":"PAYLOAD","CLASSIFICATION_TYPE":"U","COUNTRY_CODE":"US","EPHEMERIS_TYPE":"0","APOAPSIS":"548.576","TLE_LINE2":"2 46671  53.0542 183.7071 0001845  83.1552 276.9647 15.06372456 57433","ARG_OF_PERICENTER":"83.1552","ECCENTRICITY":"0.00018450","RA_OF_ASC_NODE":"183.7071","MEAN_MOTION_DOT":"-0.00001806","MEAN_ANOMALY":"276.9647","MEAN_MOTION_DDOT":"0.0000000000000","EPOCH":"2021-10-31T20:18:12.847392","GP_ID":"188607391","NORAD_CAT_ID":"46671","MEAN_MOTION":"15.06372456","FILE":"3194950","ELEMENT_SET_NO":"999","CENTER_NAME":"EARTH","OBJECT_NAME":"STARLINK-1715","TIME_SYSTEM":"UTC","LAUNCH_DATE":"2020-10-18","TLE_LINE1":"1 46671U 20073B   21304.84598203 -.00001806  00000-0 -10241-3 0  9993","REF_FRAME":"TEME","BSTAR":"-0.00010241000000","DECAY_DATE":null,"PERIAPSIS":"546.020","OBJECT_ID":"2020-073B","PERIOD":"95.594","INCLINATION":"53.0542","RCS_SIZE":"LARGE","SEMIMAJOR_AXIS":"6925.433"},{"SITE":"AFETR","MEAN_ELEMENT_THEORY":"SGP4","OBJECT_TYPE":"PAYLOAD","REV_AT_EPOCH":"5749","EPHEMERIS_TYPE":"0","COUNTRY_CODE":"US","APOAPSIS":"548.515","CLASSIFICATION_TYPE":"U","ECCENTRICITY":"0.00018840","RA_OF_ASC_NODE":"179.1193","ARG_OF_PERICENTER":"82.6263","TLE_LINE2":"2 46672  53.0531 179.1193 0001884  82.6263 277.4940 15.06401009 57497","GP_ID":"188607635","MEAN_MOTION_DDOT":"0.0000000000000","EPOCH":"2021-10-31T18:04:51.148128","NORAD_CAT_ID":"46672","MEAN_ANOMALY":"277.4940","MEAN_MOTION_DOT":"0.00000466","CENTER_NAME":"EARTH","ELEMENT_SET_NO":"999","TIME_SYSTEM":"UTC","OBJECT_NAME":"STARLINK-1716","MEAN_MOTION":"15.06401009","FILE":"3194950","TLE_LINE1":"1 46672U 20073C   21304.75336977  .00000466  00000-0  50201-4 0  9992","REF_FRAME":"TEME","LAUNCH_DATE":"2020-10-18","PERIAPSIS":"545.906","DECAY_DATE":null,"BSTAR":"0.00005020100000","RCS_SIZE":"LARGE","INCLINATION":"53.0531","SEMIMAJOR_AXIS":"6925.345","PERIOD":"95.592","OBJECT_ID":"2020-073C"},{"DECAY_DATE":null,"PERIAPSIS":"546.066","BSTAR":"-0.00024103000000","SEMIMAJOR_AXIS":"6925.305","INCLINATION":"53.0546","RCS_SIZE":"LARGE","OBJECT_ID":"2020-073D","PERIOD":"95.591","OBJECT_NAME":"STARLINK-1717","TIME_SYSTEM":"UTC","ELEMENT_SET_NO":"999","CENTER_NAME":"EARTH","FILE":"3194431","MEAN_MOTION":"15.06414130","REF_FRAME":"TEME","TLE_LINE1":"1 46673U 20073D   21304.39165830 -.00003871  00000-0 -24103-3 0  9997","LAUNCH_DATE":"2020-10-18","RA_OF_ASC_NODE":"195.7520","ECCENTRICITY":"0.00015940","TLE_LINE2":"2 46673  53.0546 195.7520 0001594  72.3452 287.7711 15.06414130 57226","ARG_OF_PERICENTER":"72.3452","NORAD_CAT_ID":"46673","MEAN_MOTION_DDOT":"0.0000000000000","EPOCH":"2021-10-31T09:23:59.277120","GP_ID":"188572490","MEAN_MOTION_DOT":"-0.00003871","MEAN_ANOMALY":"287.7711","OBJECT_TYPE":"PAYLOAD","MEAN_ELEMENT_THEORY":"SGP4","SITE":"AFETR","REV_AT_EPOCH":"5722","APOAPSIS":"548.274","COUNTRY_CODE":"US","EPHEMERIS_TYPE":"0","CLASSIFICATION_TYPE":"U"}];
